{
  "norad_id": 66661,
  "name": "SNUGLITE-III",
  "history": [
    {
      "epoch": "2026-03-28T19:14:38.230368Z",
      "apogee_km": 595.6299016140829,
      "perigee_km": 577.1712305397041,
      "latitude_deg": 5.350123233600844e-05,
      "longitude_deg": -96.48085738637195,
      "height_km": 586.3302716048017,
      "semi_major_axis_km": 6964.537566076893,
      "eccentricity": 0.00132519,
      "inclination_deg": 97.7447,
      "raan_deg": 18.3955,
      "arg_perigee_deg": 289.7716,
      "mean_anomaly_deg": 70.2075,
      "mean_motion_rev_day": 14.93703278
    },
    {
      "epoch": "2026-03-29T01:40:29.659008Z",
      "apogee_km": 595.611228749487,
      "perigee_km": 577.1775071248321,
      "latitude_deg": -4.75930972850348e-05,
      "longitude_deg": 167.05486041543207,
      "height_km": 586.4837372587276,
      "semi_major_axis_km": 6964.531367937159,
      "eccentricity": 0.0013234,
      "inclination_deg": 97.7448,
      "raan_deg": 18.6596,
      "arg_perigee_deg": 288.7481,
      "mean_anomaly_deg": 71.2302,
      "mean_motion_rev_day": 14.93705272
    },
    {
      "epoch": "2026-03-30T01:47:27.222432Z",
      "apogee_km": 595.5207796573377,
      "perigee_km": 577.2156919658455,
      "latitude_deg": 9.525232704659646e-05,
      "longitude_deg": 165.3147855422908,
      "height_km": 587.0494219500234,
      "semi_major_axis_km": 6964.505235811592,
      "eccentricity": 0.00131417,
      "inclination_deg": 97.7452,
      "raan_deg": 19.6498,
      "arg_perigee_deg": 285.0116,
      "mean_anomaly_deg": 74.965,
      "mean_motion_rev_day": 14.93713679
    },
    {
      "epoch": "2026-03-30T08:13:18.513696Z",
      "apogee_km": 595.5043239166353,
      "perigee_km": 577.2211192475379,
      "latitude_deg": 6.497357962388099e-05,
      "longitude_deg": 68.85106808441579,
      "height_km": 587.1981092371274,
      "semi_major_axis_km": 6964.499721582086,
      "eccentricity": 0.0013126,
      "inclination_deg": 97.7453,
      "raan_deg": 19.9139,
      "arg_perigee_deg": 284.0317,
      "mean_anomaly_deg": 75.9444,
      "mean_motion_rev_day": 14.93715453
    },
    {
      "epoch": "2026-03-30T17:52:05.352960Z",
      "apogee_km": 595.4728427666778,
      "perigee_km": 577.2306181452204,
      "latitude_deg": -5.929969645124573e-05,
      "longitude_deg": -75.844039521619,
      "height_km": 587.4251079862468,
      "semi_major_axis_km": 6964.488730455949,
      "eccentricity": 0.00130966,
      "inclination_deg": 97.7454,
      "raan_deg": 20.3101,
      "arg_perigee_deg": 282.5279,
      "mean_anomaly_deg": 77.4475,
      "mean_motion_rev_day": 14.93718989
    },
    {
      "epoch": "2026-03-31T16:22:34.491360Z",
      "apogee_km": 595.4039993856122,
      "perigee_km": 577.2587734516364,
      "latitude_deg": 4.412553251339473e-05,
      "longitude_deg": -53.46553683347432,
      "height_km": 587.9531005146072,
      "semi_major_axis_km": 6964.468386418624,
      "eccentricity": 0.0013027,
      "inclination_deg": 97.7458,
      "raan_deg": 21.2344,
      "arg_perigee_deg": 279.0703,
      "mean_anomaly_deg": 80.9043,
      "mean_motion_rev_day": 14.93725534
    },
    {
      "epoch": "2026-04-01T14:53:03.233184Z",
      "apogee_km": 595.3436316531734,
      "perigee_km": 577.2875918119962,
      "latitude_deg": -3.648911699848371e-05,
      "longitude_deg": -31.085152367455354,
      "height_km": 588.4867393439115,
      "semi_major_axis_km": 6964.452611732585,
      "eccentricity": 0.0012963,
      "inclination_deg": 97.7462,
      "raan_deg": 22.1589,
      "arg_perigee_deg": 275.5998,
      "mean_anomaly_deg": 84.3743,
      "mean_motion_rev_day": 14.93730609
    },
    {
      "epoch": "2026-04-02T18:12:54.689184Z",
      "apogee_km": 595.2964178190214,
      "perigee_km": 577.2755554756923,
      "latitude_deg": 2.5209359433557955e-05,
      "longitude_deg": -81.04960235915262,
      "height_km": 589.0994546316524,
      "semi_major_axis_km": 6964.422986647357,
      "eccentricity": 0.00129378,
      "inclination_deg": 97.7465,
      "raan_deg": 23.2813,
      "arg_perigee_deg": 271.5183,
      "mean_anomaly_deg": 88.4555,
      "mean_motion_rev_day": 14.9374014
    },
    {
      "epoch": "2026-04-03T18:19:50.115936Z",
      "apogee_km": 595.2272801960016,
      "perigee_km": 577.2716989485871,
      "latitude_deg": 2.065446122700873e-05,
      "longitude_deg": -82.78043056722548,
      "height_km": 589.6551942405868,
      "semi_major_axis_km": 6964.3864895722945,
      "eccentricity": 0.0012891,
      "inclination_deg": 97.7468,
      "raan_deg": 24.2718,
      "arg_perigee_deg": 267.7444,
      "mean_anomaly_deg": 92.23,
      "mean_motion_rev_day": 14.93751882
    }
  ]
}